0 SL-16 DEB
1 22546U 92093HG  13283.17299417  .00004681  00000-0  19839-2 0   362
2 22546 071.3835 346.3321 0096485 156.7594 234.6344 14.23376539 59495
0 SL-16 DEB
1 22546U 92093HG  13286.35502250  .00003503  00000-0  14897-2 0   380
2 22546 071.3844 339.6870 0095866 151.7873 339.8178 14.23398423 59945
0 SL-16 DEB
1 22546U 92093HG  13287.95949610  .00005894  00000-0  24929-2 0   395
2 22546 071.3841 336.3369 0095535 149.2363 281.5218 14.23411334 60170
0 SL-16 DEB
1 22546U 92093HG  13289.50532558  .00004473  00000-0  18969-2 0   408
2 22546 071.3835 333.1091 0095287 146.7499 282.8321 14.23424983 60393
0 SL-16 DEB
1 22546U 92093HG  13290.57569848  .00004613  00000-0  19557-2 0   410
2 22546 071.3830 330.8739 0095154 145.0170 007.8033 14.23431668 60542
0 SL-16 DEB
1 22546U 92093HG  13292.17363830  .00003596  00000-0  15290-2 0   421
2 22546 071.3827 327.5366 0094881 142.4225 276.2730 14.23442763 60774
0 SL-16 DEB
1 22546U 92093HG  13293.24091715  .00004108  00000-0  17439-2 0   438
2 22546 071.3828 325.3075 0094703 140.6781 345.4773 14.23449693 60920
0 SL-16 DEB
1 22546U 92093HG  13294.84292749  .00005081  00000-0  21520-2 0   443
2 22546 071.3831 321.9613 0094423 138.0589 274.9314 14.23461339 61154
0 SL-16 DEB
1 22546U 92093HG  13296.19181274  .00004371  00000-0  18544-2 0   457
2 22546 071.3834 319.1440 0094140 135.8454 347.3122 14.23472192 61348
